{"type": "FeatureCollection", "features": [ {"type": "Feature", "properties": {"norad_id": 33799, "name": "COSMOS 2251 DEB", "group": "cosmos-2251-debris", "lat": -10.068951683994287, "lon": -95.04440625427894, "alt_km": 621.4734961133199, "timestamp": "2025-12-12T14:39:18.325412+00:00", "meta": {"OBJECT_NAME": "COSMOS 2251 DEB", "OBJECT_ID": "1993-036AQ", "EPOCH": "2025-12-12T07:33:36.298944", "MEAN_MOTION": 14.79581796, "ECCENTRICITY": 0.00234197, "INCLINATION": 74.0313, "RA_OF_ASC_NODE": 82.6229, "ARG_OF_PERICENTER": 153.427, "MEAN_ANOMALY": 262.7778, "EPHEMERIS_TYPE": 0, "CLASSIFICATION_TYPE": "U", "NORAD_CAT_ID": 33799, "ELEMENT_SET_NO": 999, "REV_AT_EPOCH": 88805, "BSTAR": 0.0017943079, "MEAN_MOTION_DOT": 0.00013497, "MEAN_MOTION_DDOT": 0}, "tle": {"line1": "1 33799U 93036AQ  25346.31500346  .00013497  00000+0  17943-2 0  9993", "line2": "2 33799  74.0313  82.6229 0023419 153.4270 262.7778 14.79581796888056"}}, "geometry": {"type": "Point", "coordinates": [-95.04440625427894, -10.068951683994287]}}, {"type": "Feature", "properties": {"norad_id": 33805, "name": "COSMOS 2251 DEB", "group": "cosmos-2251-debris", "lat": -24.375009985538824, "lon": -55.87832330277985, "alt_km": 746.6428438322391, "timestamp": "2025-12-12T14:39:18.325421+00:00", "meta": {"OBJECT_NAME": "COSMOS 2251 DEB", "OBJECT_ID": "1993-036AW", "EPOCH": "2025-12-12T06:32:16.757088", "MEAN_MOTION": 14.57854121, "ECCENTRICITY": 0.00602192, "INCLINATION": 74.0307, "RA_OF_ASC_NODE": 312.2197, "ARG_OF_PERICENTER": 141.3539, "MEAN_ANOMALY": 219.1959, "EPHEMERIS_TYPE": 0, "CLASSIFICATION_TYPE": "U", "NORAD_CAT_ID": 33805, "ELEMENT_SET_NO": 999, "REV_AT_EPOCH": 89220, "BSTAR": 0.00037905729, "MEAN_MOTION_DOT": 1.75e-05, "MEAN_MOTION_DDOT": 0}, "tle": {"line1": "1 33805U 93036AW  25346.27241617  .00001750  00000+0  37906-3 0  9990", "line2": "2 33805  74.0307 312.2197 0060219 141.3539 219.1959 14.57854121892206"}}, "geometry": {"type": "Point", "coordinates": [-55.87832330277985, -24.375009985538824]}}, {"type": "Feature", "properties": {"norad_id": 33811, "name": "COSMOS 2251 DEB", "group": "cosmos-2251-debris", "lat": -1.1691111000365206, "lon": 123.26351936504491, "alt_km": 573.1670526863963, "timestamp": "2025-12-12T14:39:18.325431+00:00", "meta": {"OBJECT_NAME": "COSMOS 2251 DEB", "OBJECT_ID": "1993-036BC", "EPOCH": "2025-12-12T06:23:05.582976", "MEAN_MOTION": 15.05249405, "ECCENTRICITY": 0.00306596, "INCLINATION": 73.8382, "RA_OF_ASC_NODE": 303.6387, "ARG_OF_PERICENTER": 24.2026, "MEAN_ANOMALY": 90.231, "EPHEMERIS_TYPE": 0, "CLASSIFICATION_TYPE": "U", "NORAD_CAT_ID": 33811, "ELEMENT_SET_NO": 999, "REV_AT_EPOCH": 90011, "BSTAR": 0.0017114196, "MEAN_MOTION_DOT": 0.00024755, "MEAN_MOTION_DDOT": 0}, "tle": {"line1": "1 33811U 93036BC  25346.26603684  .00024755  00000+0  17114-2 0  9990", "line2": "2 33811  73.8382 303.6387 0030659  24.2026  90.2310 15.05249405900119"}}, "geometry": {"type": "Point", "coordinates": [123.26351936504491, -1.1691111000365206]}}, {"type": "Feature", "properties": {"norad_id": 33815, "name": "COSMOS 2251 DEB", "group": "cosmos-2251-debris", "lat": -58.03986358051785, "lon": 24.33411495148736, "alt_km": 517.5967507372161, "timestamp": "2025-12-12T14:39:18.325441+00:00", "meta": {"OBJECT_NAME": "COSMOS 2251 DEB", "OBJECT_ID": "1993-036BG", "EPOCH": "2025-12-10T00:34:36.803712", "MEAN_MOTION": 15.1696459, "ECCENTRICITY": 0.00027751, "INCLINATION": 73.9523, "RA_OF_ASC_NODE": 182.2836, "ARG_OF_PERICENTER": 231.9732, "MEAN_ANOMALY": 286.9539, "EPHEMERIS_TYPE": 0, "CLASSIFICATION_TYPE": "U", "NORAD_CAT_ID": 33815, "ELEMENT_SET_NO": 999, "REV_AT_EPOCH": 88329, "BSTAR": 0.0073023687, "MEAN_MOTION_DOT": 0.00147157, "MEAN_MOTION_DDOT": 0}, "tle": {"line1": "1 33815U 93036BG  25344.02403708  .00147157  00000+0  73024-2 0  9995", "line2": "2 33815  73.9523 182.2836 0002775 231.9732 286.9539 15.16964590883297"}}, "geometry": {"type": "Point", "coordinates": [24.33411495148736, -58.03986358051785]}}, {"type": "Feature", "properties": {"norad_id": 33816, "name": "COSMOS 2251 DEB", "group": "cosmos-2251-debris", "lat": 9.174985294982237, "lon": -77.05934220016447, "alt_km": 835.4788828676992, "timestamp": "2025-12-12T14:39:18.325451+00:00", "meta": {"OBJECT_NAME": "COSMOS 2251 DEB", "OBJECT_ID": "1993-036BH", "EPOCH": "2025-12-11T11:47:39.911424", "MEAN_MOTION": 13.81781196, "ECCENTRICITY": 0.02647437, "INCLINATION": 73.8948, "RA_OF_ASC_NODE": 107.5116, "ARG_OF_PERICENTER": 120.6874, "MEAN_ANOMALY": 242.0628, "EPHEMERIS_TYPE": 0, "CLASSIFICATION_TYPE": "U", "NORAD_CAT_ID": 33816, "ELEMENT_SET_NO": 999, "REV_AT_EPOCH": 84656, "BSTAR": 0.00078196, "MEAN_MOTION_DOT": 1.071e-05, "MEAN_MOTION_DDOT": 0}, "tle": {"line1": "1 33816U 93036BH  25345.49143416  .00001071  00000+0  78196-3 0  9995", "line2": "2 33816  73.8948 107.5116 0264743 120.6874 242.0628 13.81781196846565"}}, "geometry": {"type": "Point", "coordinates": [-77.05934220016447, 9.174985294982237]}}, {"type": "Feature", "properties": {"norad_id": 33818, "name": "COSMOS 2251 DEB", "group": "cosmos-2251-debris", "lat": 44.01551533688008, "lon": -29.50443753788484, "alt_km": 507.2321344876618, "timestamp": "2025-12-12T14:39:18.325460+00:00", "meta": {"OBJECT_NAME": "COSMOS 2251 DEB", "OBJECT_ID": "1993-036BK", "EPOCH": "2025-12-12T05:04:00.278112", "MEAN_MOTION": 15.12428593, "ECCENTRICITY": 0.00271147, "INCLINATION": 74.0766, "RA_OF_ASC_NODE": 167.3336, "ARG_OF_PERICENTER": 156.3758, "MEAN_ANOMALY": 323.0447, "EPHEMERIS_TYPE": 0, "CLASSIFICATION_TYPE": "U", "NORAD_CAT_ID": 33818, "ELEMENT_SET_NO": 999, "REV_AT_EPOCH": 89854, "BSTAR": 0.0033810245, "MEAN_MOTION_DOT": 0.00059733, "MEAN_MOTION_DDOT": 0}, "tle": {"line1": "1 33818U 93036BK  25346.21111433  .00059733  00000+0  33810-2 0  9993", "line2": "2 33818  74.0766 167.3336 0027114 156.3758 323.0447 15.12428593898541"}}, "geometry": {"type": "Point", "coordinates": [-29.50443753788484, 44.01551533688008]}}, {"type": "Feature", "properties": {"norad_id": 33819, "name": "COSMOS 2251 DEB", "group": "cosmos-2251-debris", "lat": -61.14651620426064, "lon": 179.1058850304036, "alt_km": 837.4957860098548, "timestamp": "2025-12-12T14:39:18.325470+00:00", "meta": {"OBJECT_NAME": "COSMOS 2251 DEB", "OBJECT_ID": "1993-036BL", "EPOCH": "2025-12-12T02:15:21.312288", "MEAN_MOTION": 14.322192, "ECCENTRICITY": 0.00890672, "INCLINATION": 74.1788, "RA_OF_ASC_NODE": 211.0137, "ARG_OF_PERICENTER": 72.5334, "MEAN_ANOMALY": 79.9863, "EPHEMERIS_TYPE": 0, "CLASSIFICATION_TYPE": "U", "NORAD_CAT_ID": 33819, "ELEMENT_SET_NO": 999, "REV_AT_EPOCH": 87486, "BSTAR": 0.000974397, "MEAN_MOTION_DOT": 2.72e-05, "MEAN_MOTION_DDOT": 0}, "tle": {"line1": "1 33819U 93036BL  25346.09399667  .00002720  00000+0  97440-3 0  9991", "line2": "2 33819  74.1788 211.0137 0089067  72.5334  79.9863 14.32219200874869"}}, "geometry": {"type": "Point", "coordinates": [179.1058850304036, -61.14651620426064]}}, {"type": "Feature", "properties": {"norad_id": 33821, "name": "COSMOS 2251 DEB", "group": "cosmos-2251-debris", "lat": -64.59142368516886, "lon": 106.03578702329982, "alt_km": 510.70398746335286, "timestamp": "2025-12-12T14:39:18.325479+00:00", "meta": {"OBJECT_NAME": "COSMOS 2251 DEB", "OBJECT_ID": "1993-036BN", "EPOCH": "2025-12-12T03:56:41.055648", "MEAN_MOTION": 15.25258016, "ECCENTRICITY": 0.00520172, "INCLINATION": 74.0307, "RA_OF_ASC_NODE": 144.0532, "ARG_OF_PERICENTER": 177.8568, "MEAN_ANOMALY": 182.2866, "EPHEMERIS_TYPE": 0, "CLASSIFICATION_TYPE": "U", "NORAD_CAT_ID": 33821, "ELEMENT_SET_NO": 999, "REV_AT_EPOCH": 74992, "BSTAR": 0.0017435336, "MEAN_MOTION_DOT": 0.00045827, "MEAN_MOTION_DDOT": 0}, "tle": {"line1": "1 33821U 93036BN  25346.16436407  .00045827  00000+0  17435-2 0  9996", "line2": "2 33821  74.0307 144.0532 0052017 177.8568 182.2866 15.25258016749925"}}, "geometry": {"type": "Point", "coordinates": [106.03578702329982, -64.59142368516886]}}, {"type": "Feature", "properties": {"norad_id": 33822, "name": "COSMOS 2251 DEB", "group": "cosmos-2251-debris", "lat": 48.18102349310449, "lon": -4.7056796310549345, "alt_km": 882.7305341541078, "timestamp": "2025-12-12T14:39:18.325489+00:00", "meta": {"OBJECT_NAME": "COSMOS 2251 DEB", "OBJECT_ID": "1993-036BP", "EPOCH": "2025-12-12T01:01:47.524224", "MEAN_MOTION": 14.13064474, "ECCENTRICITY": 0.0153388, "INCLINATION": 74.0696, "RA_OF_ASC_NODE": 194.9123, "ARG_OF_PERICENTER": 241.4163, "MEAN_ANOMALY": 242.4911, "EPHEMERIS_TYPE": 0, "CLASSIFICATION_TYPE": "U", "NORAD_CAT_ID": 33822, "ELEMENT_SET_NO": 999, "REV_AT_EPOCH": 86044, "BSTAR": 0.0018681, "MEAN_MOTION_DOT": 3.877e-05, "MEAN_MOTION_DDOT": 0}, "tle": {"line1": "1 33822U 93036BP  25346.04291116  .00003877  00000+0  18681-2 0  9993", "line2": "2 33822  74.0696 194.9123 0153388 241.4163 242.4911 14.13064474860449"}}, "geometry": {"type": "Point", "coordinates": [-4.7056796310549345, 48.18102349310449]}}, {"type": "Feature", "properties": {"norad_id": 33823, "name": "COSMOS 2251 DEB", "group": "cosmos-2251-debris", "lat": -37.13209128901368, "lon": 136.84832734749853, "alt_km": 796.7462305939589, "timestamp": "2025-12-12T14:39:18.325498+00:00", "meta": {"OBJECT_NAME": "COSMOS 2251 DEB", "OBJECT_ID": "1993-036BQ", "EPOCH": "2025-12-11T22:26:29.901120", "MEAN_MOTION": 13.98946683, "ECCENTRICITY": 0.0209328, "INCLINATION": 73.8087, "RA_OF_ASC_NODE": 150.7405, "ARG_OF_PERICENTER": 276.03, "MEAN_ANOMALY": 242.4311, "EPHEMERIS_TYPE": 0, "CLASSIFICATION_TYPE": "U", "NORAD_CAT_ID": 33823, "ELEMENT_SET_NO": 999, "REV_AT_EPOCH": 85598, "BSTAR": 0.001069, "MEAN_MOTION_DOT": 1.835e-05, "MEAN_MOTION_DDOT": 0}, "tle": {"line1": "1 33823U 93036BQ  25345.93506830  .00001835  00000+0  10690-2 0  9997", "line2": "2 33823  73.8087 150.7405 0209328 276.0300 242.4311 13.98946683855987"}}, "geometry": {"type": "Point", "coordinates": [136.84832734749853, -37.13209128901368]}}]}